NORAD_CAT_ID,OBJECT_NAME,OBJECT_TYPE,EPOCH,MEAN_MOTION,ECCENTRICITY,INCLINATION,RA_OF_ASC_NODE,ARG_OF_PERICENTER,MEAN_ANOMALY,BSTAR,MEAN_MOTION_DOT,MEAN_MOTION_DDOT,TLE_LINE0,TLE_LINE1,TLE_LINE2,SEMIMAJOR_AXIS,PERIOD,APOGEE,PERIGEE,DECAYED
49745.0,STARLINK-3241,PAYLOAD,2023-03-27 21:37:54,15.08854699,9.84e-05,53.2159,307.4971,66.4071,293.7024,0.0011133,0.00017482,0.0,0 STARLINK-3241,1 49745U 21115X   23086.90132264  .00017482  00000-0  11133-2 0  9998,2 49745  53.2159 307.4971 0000984  66.4071 293.7024 15.08854699 73936,6917.835,95.437,540.381,539.02,0.0
49745.0,STARLINK-3241,PAYLOAD,2023-03-28 13:31:45,15.08851277,0.0001178,53.2165,304.5263,80.1007,280.0118,0.0012749,0.00020066,0.0,0 STARLINK-3241,1 49745U 21115X   23087.56372248  .00020066  00000-0  12749-2 0  9995,2 49745  53.2165 304.5263 0001178  80.1007 280.0118 15.08851277 72923,6917.846,95.437,540.526,538.896,0.0
49745.0,STARLINK-3241,PAYLOAD,2023-03-28 15:07:08,15.08851465,0.0001164,53.2164,304.2261,68.0663,292.0452,0.0010262,0.00016087,0.0,0 STARLINK-3241,1 49745U 21115X   23087.62996337  .00016087  00000-0  10262-2 0  9999,2 49745  53.2164 304.2261 0001164  68.0663 292.0452 15.08851465 74043,6917.845,95.437,540.516,538.905,0.0
49745.0,STARLINK-3241,PAYLOAD,2023-03-28 21:28:41,15.08851684,0.0001139,53.2157,303.0371,71.6348,288.4768,0.00020151,2.922e-05,0.0,0 STARLINK-3241,1 49745U 21115X   23087.89492085  .00002922  00000-0  20151-3 0  9991,2 49745  53.2157 303.0371 0001139  71.6348 288.4768 15.08851684 72978,6917.845,95.437,540.498,538.922,0.0
49745.0,STARLINK-3241,PAYLOAD,2023-03-29 00:39:27,15.08852779,0.0001129,53.2164,302.442,71.7056,288.4059,0.00060051,9.285e-05,0.0,0 STARLINK-3241,1 49745U 21115X   23088.02739972  .00009285  00000-0  60051-3 0  9998,2 49745  53.2164 302.4420 0001129  71.7056 288.4059 15.08852779 74106,6917.841,95.437,540.487,538.925,0.0
49745.0,STARLINK-3241,PAYLOAD,2023-03-29 21:19:28,15.08841768,9.03e-05,53.215,298.5771,98.383,261.7265,0.00011575,1.555e-05,0.0,0 STARLINK-3241,1 49745U 21115X   23088.88852239  .00001555  00000-0  11575-3 0  9993,2 49745  53.2150 298.5771 0000903  98.3830 261.7265 15.08841768 74232,6917.875,95.437,540.365,539.115,0.0
49745.0,STARLINK-3241,PAYLOAD,2023-03-30 17:59:29,15.08845015,0.0001051,53.2133,294.7082,79.8421,280.2689,0.00024065,3.545e-05,0.0,0 STARLINK-3241,1 49745U 21115X   23089.74964249  .00003545  00000-0  24065-3 0  9993,2 49745  53.2133 294.7082 0001051  79.8421 280.2689 15.08845015 73257,6917.865,95.437,540.457,539.003,0.0
49745.0,STARLINK-3241,PAYLOAD,2023-03-31 00:21:01,15.08854604,0.0001173,53.2142,293.5189,78.4422,281.6701,0.00061602,9.534e-05,0.0,0 STARLINK-3241,1 49745U 21115X   23090.01460108  .00009534  00000-0  61602-3 0  9992,2 49745  53.2142 293.5189 0001173  78.4422 281.6701 15.08854604 74405,6917.836,95.437,540.512,538.889,0.0
49745.0,STARLINK-3241,PAYLOAD,2023-03-31 13:04:07,15.08836816,0.0001189,53.2142,291.1402,66.3922,293.7194,0.00016603,2.355e-05,0.0,0 STARLINK-3241,1 49745U 21115X   23090.54452822  .00002355  00000-0  16603-3 0  9999,2 49745  53.2142 291.1402 0001189  66.3922 293.7194 15.08836816 74488,6917.89,95.438,540.578,538.933,0.0
49745.0,STARLINK-3241,PAYLOAD,2023-04-01 12:54:54,15.08832247,0.0001166,53.2137,286.6804,67.5513,292.5603,0.00027568,4.101e-05,0.0,0 STARLINK-3241,1 49745U 21115X   23091.53813377  .00004101  00000-0  27568-3 0  9998,2 49745  53.2137 286.6804 0001166  67.5513 292.5603 15.08832247 74634,6917.904,95.438,540.576,538.962,0.0
49745.0,STARLINK-3241,PAYLOAD,2023-04-01 19:16:27,15.08838361,0.000124,53.2153,285.491,63.9784,296.1336,0.00054212,8.35e-05,0.0,0 STARLINK-3241,1 49745U 21115X   23091.80309527  .00008350  00000-0  54212-3 0  9991,2 49745  53.2153 285.4910 0001240  63.9784 296.1336 15.08838361 73567,6917.885,95.438,540.608,538.893,0.0
49745.0,STARLINK-3241,PAYLOAD,2023-04-02 12:45:41,15.08849935,0.0001337,53.2146,282.2219,39.6869,320.4221,0.00082037,0.00012796,0.0,0 STARLINK-3241,1 49745U 21115X   23092.53173570  .00012796  00000-0  82037-3 0  9994,2 49745  53.2146 282.2219 0001337  39.6869 320.4221 15.08849935 73672,6917.85,95.437,540.64,538.79,0.0
49745.0,STARLINK-3241,PAYLOAD,2023-04-02 19:07:14,15.08856405,0.0001365,53.215,281.0311,53.0632,307.0485,0.0007688,0.00011974,0.0,0 STARLINK-3241,1 49745U 21115X   23092.79669254  .00011974  00000-0  76880-3 0  9997,2 49745  53.2150 281.0311 0001365  53.0632 307.0485 15.08856405 74827,6917.83,95.437,540.64,538.751,0.0
49745.0,STARLINK-3241,PAYLOAD,2023-04-03 12:36:28,15.0884689,0.0001156,53.2153,277.7609,43.6948,316.4135,0.00013788,1.908e-05,0.0,0 STARLINK-3241,1 49745U 21115X   23093.52533041  .00001908  00000-0  13788-3 0  9997,2 49745  53.2153 277.7609 0001156  43.6948 316.4135 15.08846890 74930,6917.859,95.437,540.524,538.925,0.0
49745.0,STARLINK-3241,PAYLOAD,2023-04-04 04:30:20,15.08840155,0.0002972,53.214,274.7845,65.6561,294.4742,0.00045541,6.967e-05,0.0,0 STARLINK-3241,1 49745U 21115X   23094.18773575  .00006967  00000-0  45541-3 0  9990,2 49745  53.2140 274.7845 0002972  65.6561 294.4742 15.08840155 75036,6917.88,95.438,541.801,537.689,0.0
49745.0,STARLINK-3241,PAYLOAD,2023-04-04 10:51:52,15.08845044,0.0001454,53.215,273.5954,62.7636,297.3504,0.00062072,9.606e-05,0.0,0 STARLINK-3241,1 49745U 21115X   23094.45268921  .00009606  00000-0  62072-3 0  9995,2 49745  53.2150 273.5954 0001454  62.7636 297.3504 15.08845044 73960,6917.865,95.437,540.736,538.724,0.0
49745.0,STARLINK-3241,PAYLOAD,2023-04-05 12:18:02,15.0884471,7.04e-05,53.2163,268.8372,55.8233,304.2826,0.0003213,4.83e-05,0.0,0 STARLINK-3241,1 49745U 21115X   23095.51253009  .00004830  00000-0  32130-3 0  9990,2 49745  53.2163 268.8372 0000704  55.8233 304.2826 15.08844710 74121,6917.866,95.437,540.218,539.244,0.0
49745.0,STARLINK-3241,PAYLOAD,2023-04-05 15:28:48,15.08838349,0.0001049,53.2148,268.242,79.1274,280.9836,0.00014908,2.086e-05,0.0,0 STARLINK-3241,1 49745U 21115X   23095.64501042  .00002086  00000-0  14908-3 0  9991,2 49745  53.2148 268.2420 0001049  79.1274 280.9836 15.08838349 75256,6917.885,95.438,540.476,539.025,0.0
49745.0,STARLINK-3241,PAYLOAD,2023-04-05 18:39:35,15.08839678,9.31e-05,53.215,267.6483,69.1758,290.9334,8.26e-05,1.027e-05,0.0,0 STARLINK-3241,1 49745U 21115X   23095.77748992  .00001027  00000-0  82600-4 0  9991,2 49745  53.2150 267.6483 0000931  69.1758 290.9334 15.08839678 74165,6917.881,95.438,540.39,539.102,0.0
49745.0,STARLINK-3241,PAYLOAD,2023-04-06 12:08:49,15.08837457,8.6e-05,53.2151,264.3775,80.2871,279.8218,0.0001089,1.446e-05,0.0,0 STARLINK-3241,1 49745U 21115X   23096.50613378  .00001446  00000-0  10890-3 0  9998,2 49745  53.2151 264.3775 0000860  80.2871 279.8218 15.08837457 74277,6917.888,95.438,540.348,539.158,0.0
49745.0,STARLINK-3241,PAYLOAD,2023-04-07 11:59:36,15.0884629,0.0001,53.2147,259.9161,75.7695,284.3408,0.00027406,4.077e-05,0.0,0 STARLINK-3241,1 49745U 21115X   23097.49973204  .00004077  00000-0  27406-3 0  9998,2 49745  53.2147 259.9161 0001000  75.7695 284.3408 15.08846290 74425,6917.861,95.437,540.418,539.034,0.0
49745.0,STARLINK-3241,PAYLOAD,2023-04-07 19:56:32,15.08855219,0.0001189,53.2162,258.4302,85.8101,274.3027,0.00045748,7.003e-05,0.0,0 STARLINK-3241,1 49745U 21115X   23097.83092760  .00007003  00000-0  45748-3 0  9996,2 49745  53.2162 258.4302 0001189  85.8101 274.3027 15.08855219 75580,6917.834,95.437,540.521,538.876,0.0
49745.0,STARLINK-3241,PAYLOAD,2023-04-08 03:53:20,15.09018412,0.0001466,53.2153,256.9422,235.096,124.9895,0.0034271,0.00054948,0.0,0 STARLINK-3241,1 49745U 21115X   23098.16204451  .00054948  00000-0  34271-2 0  9993,2 49745  53.2153 256.9422 0001466 235.0960 124.9895 15.09018412 75632,6917.335,95.426,540.214,538.186,0.0
49745.0,STARLINK-3241,PAYLOAD,2023-04-08 10:14:45,15.09181457,0.0001151,53.2192,255.7541,86.4814,273.631,0.0062103,0.00100907,0.0,0 STARLINK-3241,1 49745U 21115X   23098.42692002  .00100907  00000-0  62103-2 0  9997,2 49745  53.2192 255.7541 0001151  86.4814 273.6310 15.09181457 75679,6916.837,95.416,539.498,537.906,0.0
49745.0,STARLINK-3241,PAYLOAD,2023-04-08 21:22:04,15.09552817,0.0001522,53.2171,253.6695,88.7158,271.4009,0.010716,0.00178044,0.0,0 STARLINK-3241,1 49745U 21115X   23098.89032962  .00178044  00000-0  10716-1 0  9990,2 49745  53.2171 253.6695 0001522  88.7158 271.4009 15.09552817 75742,6915.702,95.392,538.62,536.515,0.0
49745.0,STARLINK-3241,PAYLOAD,2023-04-09 03:43:18,15.09764145,0.0001227,53.2156,252.4775,117.5025,242.6092,0.011932,0.00200058,0.0,0 STARLINK-3241,1 49745U 21115X   23099.15508041  .00200058  00000-0  11932-1 0  9998,2 49745  53.2156 252.4775 0001227 117.5025 242.6092 15.09764145 75782,6915.057,95.379,537.771,536.074,0.0
49745.0,STARLINK-3241,PAYLOAD,2023-04-09 14:00:01,15.10491902,0.0001322,53.2154,250.5515,83.8503,86.1614,-0.0023309,-0.00038903,0.0,0 STARLINK-3241,1 49745U 21115X   23099.58334491 -.00038903  00000-0 -23309-2 0  9993,2 49745  53.2154 250.5515 0001322  83.8503  86.1614 15.10491902 75841,6912.836,95.333,535.615,533.787,0.0
49745.0,STARLINK-3241,PAYLOAD,2023-04-09 22:00:00,15.10498751,0.0001436,53.2153,249.0522,65.8032,117.7646,-0.0045506,-0.00075305,0.0,0 STARLINK-3241,1 49745U 21115X   23099.91667824 -.00075305  00000-0 -45506-2 0  9999,2 49745  53.2153 249.0522 0001436  65.8032 117.7646 15.10498751  1309,6912.815,95.333,535.673,533.687,0.0
49745.0,STARLINK-3241,PAYLOAD,2023-04-10 10:00:00,15.10327948,0.0001159,53.2158,246.8003,74.9929,308.8658,-0.030467,-0.00477776,0.0,0 STARLINK-3241,1 49745U 21115X   23100.41667824 -.00477776  00000-0 -30467-1 0  9994,2 49745  53.2158 246.8003 0001159  74.9929 308.8658 15.10327948 75970,6913.336,95.344,536.002,534.4,0.0
49745.0,STARLINK-3241,PAYLOAD,2023-04-10 14:00:01,15.10160977,0.0001259,53.2158,246.0516,70.7761,139.7247,-0.031391,-0.00489326,0.0,0 STARLINK-3241,1 49745U 21115X   23100.58334491 -.00489326  00000-0 -31391-1 0  9994,2 49745  53.2158 246.0516 0001259  70.7761 139.7247 15.10160977  1308,6913.846,95.354,536.581,534.84,0.0
